
{"cafes":[{"place_name":"카페연다","address_name":"인천 남동구 도림동 673-1","road_address_name":"인천 남동구 도림로49번길 7-14","phone":"","category_group_name":"카페","place_url":"http://place.map.kakao.com/199805294","x":"126.7274407418","y":"37.4177763647798"},{"place_name":"카페온","address_name":"인천 남동구 도림동 673-1","road_address_name":"인천 남동구 도림로49번길 7-14","phone":"010-7399-9250","category_group_name":"카페","place_url":"http://place.map.kakao.com/392089043","x":"126.7274407418","y":"37.4177763647798"},{"place_name":"메가MGC커피 소래포구역점","address_name":"인천 남동구 논현동 677-6","road_address_name":"인천 남동구 소래역로 36","phone":"032-434-0999","category_group_name":"카페","place_url":"http://place.map.kakao.com/1792934274","x":"126.73550754971131","y":"37.400123031201474"},{"place_name":"메가MGC커피 인천논현역점","address_name":"인천 남동구 논현동 632-2","road_address_name":"인천 남동구 논고개로123번길 17","phone":"032-437-5677","category_group_name":"카페","place_url":"http://place.map.kakao.com/278831194","x":"126.723406105822","y":"37.4016667187389"},{"place_name":"이엠에스카페","address_name":"인천 남동구 논현동 588-2","road_address_name":"인천 남동구 은봉로 297","phone":"","category_group_name":"카페","place_url":"http://place.map.kakao.com/288510902","x":"126.722913621497","y":"37.4065905299964"},{"place_name":"아그란스","address_name":"인천 남동구 논현동 607-6","road_address_name":"인천 남동구 논고개로 152-9","phone":"032-431-1216","category_group_name":"카페","place_url":"http://place.map.kakao.com/599943055","x":"126.72405830415275","y":"37.40491100688754"},{"place_name":"8퍼센트","address_name":"인천 남동구 논현동 651-1","road_address_name":"인천 남동구 소래역서로2번길 42","phone":"","category_group_name":"카페","place_url":"http://place.map.kakao.com/1853390092","x":"126.730049334332","y":"37.4022911608179"},{"place_name":"데이롱 무인카페 인천논현직영점","address_name":"인천 남동구 논현동 601-1","road_address_name":"인천 남동구 논현로 235-1","phone":"0507-1354-6869","category_group_name":"카페","place_url":"http://place.map.kakao.com/1897990798","x":"126.73126128792315","y":"37.406379137772326"},{"place_name":"트리플에이커피 소래포구점","address_name":"인천 남동구 논현동 751-1","road_address_name":"인천 남동구 소래역남로16번길 75","phone":"032-424-7732","category_group_name":"카페","place_url":"http://place.map.kakao.com/189505508","x":"126.73299288173732","y":"37.400304791363936"},{"place_name":"이디야커피 인천도림점","address_name":"인천 남동구 도림동 672-2","road_address_name":"인천 남동구 논고개로 311-1","phone":"032-433-8743","category_group_name":"카페","place_url":"http://place.map.kakao.com/1226785245","x":"126.728184683182","y":"37.4182276845568"},{"place_name":"블루제이","address_name":"인천 남동구 도림동 633-3","road_address_name":"인천 남동구 오봉로10번길 4","phone":"032-442-9955","category_group_name":"카페","place_url":"http://place.map.kakao.com/15855887","x":"126.728457904455","y":"37.416393843671"},{"place_name":"플레이가루","address_name":"인천 남동구 논현동 671-1","road_address_name":"인천 남동구 앵고개로 928","phone":"032-435-4560","category_group_name":"카페","place_url":"http://place.map.kakao.com/1021630722","x":"126.733945362729","y":"37.4017882130764"},{"place_name":"드림트리키즈카페","address_name":"인천 남동구 논현동 593-7","road_address_name":"인천 남동구 은봉로 309","phone":"032-421-6113","category_group_name":"카페","place_url":"http://place.map.kakao.com/1713457726","x":"126.723977730103","y":"37.4059388801403"},{"place_name":"발도스커피 소래포구역점","address_name":"인천 남동구 논현동 671-2","road_address_name":"인천 남동구 소래역로 50","phone":"","category_group_name":"카페","place_url":"http://place.map.kakao.com/1613113665","x":"126.734219360082","y":"37.4015960113102"},{"place_name":"그리니쉬","address_name":"인천 남동구 논현동 667","road_address_name":"인천 남동구 소래역동로 6-15","phone":"032-422-0540","category_group_name":"카페","place_url":"http://place.map.kakao.com/1926630501","x":"126.733599905251","y":"37.4023857115411"},{"place_name":"데이롱카페 도림점","address_name":"인천 남동구 도림동 633-2","road_address_name":"인천 남동구 오봉로 6","phone":"","category_group_name":"카페","place_url":"http://place.map.kakao.com/201048286","x":"126.72827019787425","y":"37.41644567132928"},{"place_name":"두손커피","address_name":"인천 남동구 도림동 635-1","road_address_name":"인천 남동구 오봉로 18","phone":"010-8949-9204","category_group_name":"카페","place_url":"http://place.map.kakao.com/942636023","x":"126.729427696702","y":"37.4168645955907"},{"place_name":"온새미로","address_name":"인천 남동구 논현동 604-1","road_address_name":"인천 남동구 소래역로 95","phone":"032-422-8616","category_group_name":"카페","place_url":"http://place.map.kakao.com/1582458325","x":"126.730556904115","y":"37.4043709676862"},{"place_name":"메가MGC커피 인천논현소래점","address_name":"인천 남동구 논현동 109-235","road_address_name":"인천 남동구 포구로 63","phone":"032-427-1777","category_group_name":"카페","place_url":"http://place.map.kakao.com/476450557","x":"126.736609922989","y":"37.4042927027355"},{"place_name":"메가MGC커피 인천도림점","address_name":"인천 남동구 도림동 663-4","road_address_name":"인천 남동구 논고개로 331","phone":"032-426-8281","category_group_name":"카페","place_url":"http://place.map.kakao.com/3974307","x":"126.729454264161","y":"37.4195280596139"},{"place_name":"아쿠아플레이스\u0026우주냥캣카페","address_name":"인천 남동구 논현동 617-1","road_address_name":"인천 남동구 청능대로595번길 17","phone":"032-432-8168","category_group_name":"카페","place_url":"http://place.map.kakao.com/1588035883","x":"126.724827375382","y":"37.4021565848305"},{"place_name":"카페MNH","address_name":"인천 남동구 도림동 494-1","road_address_name":"인천 남동구 비류대로 811","phone":"010-4452-4458","category_group_name":"카페","place_url":"http://place.map.kakao.com/1748073552","x":"126.72540981432573","y":"37.422055093388295"},{"place_name":"벌툰 몽유도원 인천논현점","address_name":"인천 남동구 논현동 632-1","road_address_name":"인천 남동구 논고개로123번길 35","phone":"032-428-2710","category_group_name":"카페","place_url":"http://place.map.kakao.com/2079757582","x":"126.722062661366","y":"37.4015158014326"},{"place_name":"논현길","address_name":"인천 남동구 논현동 665-20","road_address_name":"인천 남동구 소래역동로 6-5","phone":"","category_group_name":"카페","place_url":"http://place.map.kakao.com/1521505818","x":"126.733306227534","y":"37.4027121191952"},{"place_name":"일마레 소래점(휴업중)","address_name":"인천 남동구 논현동 109-73","road_address_name":"","phone":"070-4251-3928","category_group_name":"카페","place_url":"http://place.map.kakao.com/587428372","x":"126.73590453479433","y":"37.4035009362474"},{"place_name":"아프리카","address_name":"인천 남동구 도림동 45-3","road_address_name":"인천 남동구 도림북로16번길 67","phone":"032-431-5315","category_group_name":"카페","place_url":"http://place.map.kakao.com/1334118592","x":"126.735095138227","y":"37.4245531833221"},{"place_name":"이디야커피 인천논현소래점","address_name":"인천 남동구 논현동 109-19","road_address_name":"인천 남동구 포구로 77","phone":"032-421-2220","category_group_name":"카페","place_url":"http://place.map.kakao.com/1632736925","x":"126.735474217534","y":"37.4051073907981"},{"place_name":"베어커피앤와플","address_name":"인천 남동구 논현동 605","road_address_name":"인천 남동구 은봉로312번길 29-3","phone":"070-5143-7123","category_group_name":"카페","place_url":"http://place.map.kakao.com/53571833","x":"126.725082555907","y":"37.4046484935907"},{"place_name":"알로마카롱\u0026디저트샵","address_name":"인천 남동구 논현동 611-1","road_address_name":"인천 남동구 논현로170번길 5","phone":"","category_group_name":"카페","place_url":"http://place.map.kakao.com/327112218","x":"126.725136896713","y":"37.4039953818751"},{"place_name":"제이라이킷카페","address_name":"인천 남동구 논현동 611-3","road_address_name":"인천 남동구 논현로170번길 5-7","phone":"010-4338-3978","category_group_name":"카페","place_url":"http://place.map.kakao.com/1838097253","x":"126.72539641772974","y":"37.404064462263236"},{"place_name":"카페 피너클","address_name":"인천 남동구 논현동 654-2","road_address_name":"인천 남동구 소래역서로2번길 13","phone":"","category_group_name":"카페","place_url":"http://place.map.kakao.com/898150261","x":"126.731635127516","y":"37.4029011560666"},{"place_name":"호랑이커피","address_name":"인천 남동구 논현동 667-10","road_address_name":"인천 남동구 앵고개로941번길 11-1","phone":"","category_group_name":"카페","place_url":"http://place.map.kakao.com/1191935469","x":"126.734663859064","y":"37.4030161137567"},{"place_name":"읍천리382 인천논현점","address_name":"인천 남동구 논현동 615-1","road_address_name":"인천 남동구 논고개로136번길 6-9","phone":"032-433-0382","category_group_name":"카페","place_url":"http://place.map.kakao.com/1963184512","x":"126.724466663338","y":"37.4028900747001"},{"place_name":"스타벅스 인천논현점","address_name":"인천 남동구 논현동 649-4","road_address_name":"인천 남동구 논고개로 93","phone":"1522-3232","category_group_name":"카페","place_url":"http://place.map.kakao.com/18691192","x":"126.725004326673","y":"37.3994755653437"},{"place_name":"파스쿠찌 소래포구점","address_name":"인천 남동구 논현동 676-1","road_address_name":"인천 남동구 소래역로46번길 20","phone":"032-442-8497","category_group_name":"카페","place_url":"http://place.map.kakao.com/26540209","x":"126.735351878061","y":"37.4013552765319"},{"place_name":"커피놀이터 논현점","address_name":"인천 남동구 논현동 109-118","road_address_name":"인천 남동구 포구로 76","phone":"","category_group_name":"카페","place_url":"http://place.map.kakao.com/1602668233","x":"126.73613305860546","y":"37.40532600832205"},{"place_name":"숲속카페","address_name":"인천 남동구 도림동 19","road_address_name":"인천 남동구 도림북로 41-11","phone":"","category_group_name":"카페","place_url":"http://place.map.kakao.com/1441269700","x":"126.73244460848","y":"37.4264916042855"},{"place_name":"마크로스터스","address_name":"인천 남동구 도림동 323-1","road_address_name":"인천 남동구 오봉동로10번길 35","phone":"032-438-4040","category_group_name":"카페","place_url":"http://place.map.kakao.com/1322408537","x":"126.7291309845937","y":"37.415503381570254"},{"place_name":"7080라이브콘서트","address_name":"인천 남동구 도림동 664-3","road_address_name":"인천 남동구 논고개로 321","phone":"","category_group_name":"카페","place_url":"http://place.map.kakao.com/15674187","x":"126.728819481186","y":"37.4188742697702"},{"place_name":"에그카페24 인천논현점","address_name":"인천 남동구 논현동 577","road_address_name":"인천 남동구 청능대로718번길 9","phone":"","category_group_name":"카페","place_url":"http://place.map.kakao.com/331685623","x":"126.73733558131345","y":"37.40575306537724"},{"place_name":"메가MGC커피 논현은봉초점","address_name":"인천 남동구 논현동 593-6","road_address_name":"인천 남동구 논고개로 166","phone":"032-422-1005","category_group_name":"카페","place_url":"http://place.map.kakao.com/1323695842","x":"126.723732695143","y":"37.4059220895289"},{"place_name":"레드버튼 인천논현점","address_name":"인천 남동구 논현동 746-3","road_address_name":"인천 남동구 논고개로 81","phone":"032-435-3799","category_group_name":"카페","place_url":"http://place.map.kakao.com/984520804","x":"126.725888140282","y":"37.3986802158655"},{"place_name":"언더독cafe\u0026school","address_name":"인천 남동구 논현동 594-20","road_address_name":"인천 남동구 은봉로315번길 4","phone":"","category_group_name":"카페","place_url":"http://place.map.kakao.com/884952603","x":"126.724781344351","y":"37.4060957285114"},{"place_name":"요거트월드 인천논현점","address_name":"인천 남동구 논현동 66-5","road_address_name":"인천 남동구 포구로 45","phone":"","category_group_name":"카페","place_url":"http://place.map.kakao.com/1566353356","x":"126.737576208267","y":"37.4028243893549"},{"place_name":"프룻앤커피","address_name":"인천 남동구 논현동 599-1","road_address_name":"인천 남동구 청능대로715번길 24","phone":"0503-7150-5358","category_group_name":"카페","place_url":"http://place.map.kakao.com/62962377","x":"126.736335092232","y":"37.4079448169601"}]}